{"type":"FeatureCollection", "features": [
{"type":"Feature","geometry":{"type":"Polygon","coordinates":[[[8.274,4.855],[8.481,4.689],[8.545,4.803],[8.628,4.822],[8.645,4.909],[8.747,5.098],[8.81,5.152],[8.86,5.497],[8.922,5.595],[8.851,5.722],[8.868,5.846],[8.963,5.907],[9.223,6.151],[9.363,6.326],[9.467,6.401],[9.471,6.525],[9.304,6.718],[9.07,6.642],[8.992,6.692],[8.974,6.789],[8.848,6.866],[8.704,6.896],[8.621,6.781],[8.393,6.742],[8.295,6.679],[8.34,6.575],[8.457,6.428],[8.404,6.366],[8.418,6.261],[8.215,6.012],[8.114,5.938],[7.986,5.982],[7.988,5.885],[7.932,5.822],[7.89,5.685],[7.908,5.536],[7.984,5.376],[7.88,5.367],[7.993,5.207],[8.065,5.199],[8.126,4.982],[8.23,4.931],[8.274,4.855]]]},"properties":{"shapeName":"Cross River","shapeISO":"NG-CR","shapeID":"27671186B81745654473385","shapeGroup":"NGA","shapeType":"ADM1"}},
{"type":"Feature","geometry":{"type":"Polygon","coordinates":[[[6.981,8.444],[7.27,8.464],[7.365,8.488],[7.479,8.633],[7.592,8.835],[7.589,9.129],[7.668,9.304],[7.724,9.329],[7.647,9.409],[7.379,9.336],[7.22,9.114],[7.015,9.269],[6.788,9.27],[6.78,8.58],[6.828,8.458],[6.981,8.444]]]},"properties":{"shapeName":"Abuja Federal Capital Territory","shapeISO":"NG-FC","shapeID":"27671186B76269877687363","shapeGroup":"NGA","shapeType":"ADM1"}},
{"type":"Feature","geometry":{"type":"Polygon","coordinates":[[[4.483,6.326],[4.588,6.532],[4.387,6.63],[4.422,6.762],[4.547,6.841],[4.556,6.959],[4.61,7.031],[4.489,6.992],[4.376,6.995],[4.298,7.091],[4.198,7.049],[4.171,7.171],[4.088,7.133],[3.939,7.084],[3.794,7.139],[3.718,7.301],[3.707,7.447],[3.541,7.44],[3.446,7.494],[3.307,7.314],[3.155,7.378],[3.064,7.52],[2.973,7.612],[2.961,7.744],[2.886,7.769],[2.91,7.932],[2.794,7.942],[2.712,7.852],[2.743,7.783],[2.717,7.599],[2.75,7.094],[2.703,6.989],[2.733,6.769],[2.78,6.695],[2.705,6.46],[2.831,6.445],[2.886,6.511],[3.175,6.515],[3.272,6.698],[3.393,6.638],[3.461,6.683],[4.091,6.68],[4.054,6.615],[4.26,6.444],[4.354,6.451],[4.36,6.368],[4.483,6.326]]]},"properties":{"shapeName":"Ogun","shapeISO":"NG-OG","shapeID":"27671186B83907961412659","shapeGroup":"NGA","shapeType":"ADM1"}},
{"type":"Feature","geometry":{"type":"Polygon","coordinates":[[[4.088,7.133],[4.125,7.258],[4.154,7.569],[4.069,7.666],[4.076,7.825],[4.203,7.869],[4.276,7.971],[4.36,7.883],[4.557,7.981],[4.569,8.055],[4.506,8.092],[4.48,8.211],[4.392,8.304],[4.209,8.681],[4.195,8.816],[4.321,8.942],[4.012,9.035],[3.921,9.173],[3.826,9.182],[3.754,9.121],[3.691,8.997],[3.525,8.929],[3.388,8.842],[3.237,8.783],[3.164,8.809],[3.014,8.71],[2.921,8.612],[2.756,8.575],[2.709,8.339],[2.754,8.207],[2.693,7.906],[2.712,7.852],[2.794,7.942],[2.91,7.932],[2.886,7.769],[2.961,7.744],[2.973,7.612],[3.064,7.52],[3.155,7.378],[3.307,7.314],[3.446,7.494],[3.541,7.44],[3.707,7.447],[3.718,7.301],[3.794,7.139],[3.939,7.084],[4.088,7.133]]]},"properties":{"shapeName":"Oyo","shapeISO":"NG-OY","shapeID":"27671186B56513237316251","shapeGroup":"NGA","shapeType":"ADM1"}},
{"type":"Feature","geometry":{"type":"Polygon","coordinates":[[[4.126,13.25],[4.3,13.26],[4.471,13.179],[4.623,13.07],[4.687,12.939],[4.807,12.819],[4.732,12.672],[4.795,12.575],[4.803,12.485],[4.75,12.421],[4.63,12.433],[4.552,12.284],[4.552,12.098],[4.588,12.039],[4.549,11.796],[4.436,11.711],[4.419,11.614],[4.523,11.53],[4.546,11.634],[4.731,11.7],[4.803,11.758],[4.941,11.731],[4.944,11.881],[4.867,11.933],[4.875,12.23],[4.953,12.314],[5.133,12.289],[5.312,12.356],[5.439,12.343],[5.47,12.253],[5.567,12.352],[5.751,12.324],[5.773,12.383],[5.717,12.487],[5.723,12.621],[5.649,12.769],[5.734,12.827],[5.883,12.82],[5.962,12.755],[6.034,12.784],[6.006,12.919],[6.047,13.031],[6.327,13.18],[6.403,13.129],[6.52,13.122],[6.581,13.023],[6.688,13.133],[6.793,13.132],[6.713,13.311],[6.495,13.568],[6.296,13.679],[6.156,13.645],[5.825,13.764],[5.53,13.886],[5.35,13.834],[5.205,13.736],[4.909,13.746],[4.874,13.781],[4.708,13.759],[4.394,13.653],[4.232,13.499],[4.126,13.468],[4.126,13.25]]]},"properties":{"shapeName":"Sokoto","shapeISO":"NG-SO","shapeID":"27671186B99510750195830","shapeGroup":"NGA","shapeType":"ADM1"}},
{"type":"Feature","geometry":{"type":"Polygon","coordinates":[[[4.941,11.731],[5.238,11.756],[5.302,11.791],[5.376,11.71],[5.497,11.656],[5.78,11.684],[5.819,11.648],[5.827,11.444],[6.01,11.463],[6.136,11.295],[6.106,11.183],[6.016,11.138],[6.046,11.054],[6.163,11.043],[6.267,10.966],[6.329,11.027],[6.437,11.008],[6.683,11.065],[6.703,11.239],[6.889,11.384],[6.904,11.553],[6.854,11.595],[6.896,11.787],[7.142,11.849],[7.226,11.914],[7.149,12.033],[7.15,12.232],[7.093,12.283],[7.044,12.659],[7.065,12.913],[7.051,12.995],[6.933,12.997],[6.793,13.132],[6.688,13.133],[6.581,13.023],[6.52,13.122],[6.403,13.129],[6.327,13.18],[6.047,13.031],[6.006,12.919],[6.034,12.784],[5.962,12.755],[5.883,12.82],[5.734,12.827],[5.649,12.769],[5.723,12.621],[5.717,12.487],[5.773,12.383],[5.751,12.324],[5.567,12.352],[5.47,12.253],[5.439,12.343],[5.312,12.356],[5.133,12.289],[4.953,12.314],[4.875,12.23],[4.867,11.933],[4.944,11.881],[4.941,11.731]]]},"properties":{"shapeName":"Zamfara","shapeISO":"NG-ZA","shapeID":"27671186B21163522287660","shapeGroup":"NGA","shapeType":"ADM1"}},
{"type":"Feature","geometry":{"type":"Polygon","coordinates":[[[2.705,6.46],[2.7,6.375],[3.44,6.419],[3.896,6.434],[4.36,6.368],[4.354,6.451],[4.26,6.444],[4.054,6.615],[4.091,6.68],[3.461,6.683],[3.393,6.638],[3.272,6.698],[3.175,6.515],[2.886,6.511],[2.831,6.445],[2.705,6.46]]]},"properties":{"shapeName":"Lagos","shapeISO":"NG-LA","shapeID":"27671186B19119389308001","shapeGroup":"NGA","shapeType":"ADM1"}},
{"type":"Feature","geometry":{"type":"Polygon","coordinates":[[[7.88,5.367],[7.749,5.516],[7.657,5.446],[7.572,5.324],[7.528,5.156],[7.547,5.088],[7.46,4.978],[7.495,4.828],[7.535,4.7],[7.528,4.55],[7.614,4.469],[7.667,4.495],[8.027,4.543],[8.293,4.546],[8.344,4.607],[8.31,4.804],[8.274,4.855],[8.23,4.931],[8.126,4.982],[8.065,5.199],[7.993,5.207],[7.88,5.367]]]},"properties":{"shapeName":"Akwa Ibom","shapeISO":"NG-AK","shapeID":"27671186B25346211366833","shapeGroup":"NGA","shapeType":"ADM1"}},
{"type":"Feature","geometry":{"type":"Polygon","coordinates":[[[5.448,5.134],[5.375,5.126],[5.444,4.923],[5.542,4.73],[5.7,4.517],[5.977,4.312],[6.088,4.27],[6.549,4.325],[6.513,4.432],[6.56,4.541],[6.446,4.73],[6.398,4.864],[6.41,4.991],[6.493,5.163],[6.553,5.19],[6.485,5.379],[6.409,5.305],[6.348,5.32],[6.213,5.239],[6.202,5.179],[6.062,5.103],[5.915,5.108],[5.841,5.068],[5.633,5.018],[5.448,5.134]]]},"properties":{"shapeName":"Bayelsa","shapeISO":"NG-BY","shapeID":"27671186B47021609715037","shapeGroup":"NGA","shapeType":"ADM1"}},
{"type":"Feature","geometry":{"type":"Polygon","coordinates":[[[4.483,6.326],[4.615,6.235],[4.848,6.028],[4.977,5.888],[5.134,6.169],[5.016,6.292],[5.053,6.384],[5.153,6.498],[5.112,6.63],[5.141,6.731],[5.272,6.888],[5.537,6.885],[5.577,6.704],[5.758,6.784],[5.816,7.072],[5.903,7.217],[5.919,7.337],[5.987,7.355],[5.948,7.487],[6.004,7.529],[5.919,7.75],[5.773,7.747],[5.618,7.564],[5.599,7.45],[5.504,7.316],[5.358,7.296],[5.32,7.441],[5.049,7.457],[5.005,7.414],[4.99,7.378],[4.755,7.361],[4.747,7.223],[4.635,7.113],[4.61,7.031],[4.556,6.959],[4.547,6.841],[4.422,6.762],[4.387,6.63],[4.588,6.532],[4.483,6.326]]]},"properties":{"shapeName":"Ondo","shapeISO":"NG-ON","shapeID":"27671186B41407594687181","shapeGroup":"NGA","shapeType":"ADM1"}},
{"type":"Feature","geometry":{"type":"Polygon","coordinates":[[[6.485,5.379],[6.531,5.532],[6.585,5.562],[6.602,5.687],[6.639,5.739],[6.725,6.012],[6.705,6.081],[6.769,6.168],[6.723,6.266],[6.669,6.501],[6.523,6.488],[6.413,6.396],[6.282,6.357],[6.213,6.279],[6.088,6.318],[6.134,6.136],[6.257,6.017],[6.218,5.917],[6.04,5.765],[5.925,5.748],[5.921,5.877],[5.669,6.052],[5.327,6.018],[5.217,6.136],[5.134,6.169],[4.977,5.888],[5.068,5.767],[5.157,5.537],[5.32,5.355],[5.353,5.168],[5.448,5.134],[5.633,5.018],[5.841,5.068],[5.915,5.108],[6.062,5.103],[6.202,5.179],[6.213,5.239],[6.348,5.32],[6.409,5.305],[6.485,5.379]]]},"properties":{"shapeName":"Delta","shapeISO":"NG-DE","shapeID":"27671186B69086015704361","shapeGroup":"NGA","shapeType":"ADM1"}},
{"type":"Feature","geometry":{"type":"Polygon","coordinates":[[[7.495,4.828],[7.416,4.867],[7.156,4.884],[7.241,4.994],[7.293,5.173],[7.264,5.216],[7.232,5.195],[7.04,5.25],[6.904,5.22],[6.756,5.323],[6.741,5.494],[6.639,5.493],[6.669,5.69],[6.602,5.687],[6.585,5.562],[6.531,5.532],[6.485,5.379],[6.553,5.19],[6.493,5.163],[6.41,4.991],[6.398,4.864],[6.446,4.73],[6.56,4.541],[6.513,4.432],[6.549,4.325],[7.006,4.369],[7.044,4.436],[7.216,4.38],[7.487,4.449],[7.535,4.7],[7.495,4.828]]]},"properties":{"shapeName":"Rivers","shapeISO":"NG-RI","shapeID":"27671186B95832466049157","shapeGroup":"NGA","shapeType":"ADM1"}},
{"type":"Feature","geometry":{"type":"Polygon","coordinates":[[[4.569,8.055],[4.819,8.054],[4.913,8.086],[5.058,8.039],[5.332,8.01],[5.371,8.096],[5.498,8.111],[5.418,8.284],[5.322,8.341],[5.397,8.438],[5.524,8.537],[5.643,8.463],[6.041,8.393],[6.111,8.431],[6.125,8.556],[6.209,8.732],[6.033,8.759],[5.796,8.742],[5.728,8.82],[5.642,8.835],[5.54,8.931],[5.209,9.035],[5.159,9.107],[4.997,9.207],[4.815,9.132],[4.755,9.248],[4.639,9.308],[4.351,9.588],[4.153,9.862],[4.022,9.857],[3.935,9.928],[3.949,9.991],[3.864,10.05],[3.731,10.068],[3.684,10.157],[3.609,9.948],[3.525,9.844],[3.367,9.837],[3.353,9.703],[3.142,9.441],[3.166,9.303],[3.095,9.091],[2.987,9.061],[2.795,9.057],[2.743,8.771],[2.756,8.575],[2.921,8.612],[3.014,8.71],[3.164,8.809],[3.237,8.783],[3.388,8.842],[3.525,8.929],[3.691,8.997],[3.754,9.121],[3.826,9.182],[3.921,9.173],[4.012,9.035],[4.321,8.942],[4.195,8.816],[4.209,8.681],[4.392,8.304],[4.48,8.211],[4.506,8.092],[4.569,8.055]]]},"properties":{"shapeName":"Kwara","shapeISO":"NG-KW","shapeID":"27671186B2031248555853","shapeGroup":"NGA","shapeType":"ADM1"}},
{"type":"Feature","geometry":{"type":"Polygon","coordinates":[[[6.828,8.458],[6.838,8.397],[6.761,8.273],[6.684,8.213],[6.599,8.324],[6.453,8.448],[6.398,8.629],[6.303,8.728],[6.209,8.732],[6.125,8.556],[6.111,8.431],[6.041,8.393],[5.643,8.463],[5.524,8.537],[5.397,8.438],[5.322,8.341],[5.418,8.284],[5.498,8.111],[5.668,8.002],[5.599,7.952],[5.643,7.829],[5.729,7.828],[5.773,7.747],[5.919,7.75],[6.004,7.529],[6.119,7.591],[6.187,7.439],[6.295,7.499],[6.38,7.398],[6.5,7.327],[6.515,7.267],[6.638,7.294],[6.716,7.136],[6.673,6.936],[6.611,6.822],[6.662,6.558],[6.808,6.58],[6.799,6.68],[6.861,6.753],[6.952,6.808],[7.081,6.8],[7.241,6.971],[7.432,7.102],[7.531,7.032],[7.691,7.192],[7.779,7.209],[7.799,7.401],[7.736,7.599],[7.753,7.744],[7.67,7.885],[7.677,8.014],[7.505,8.047],[7.254,8.015],[7.035,7.923],[6.953,7.918],[7.003,8.167],[6.935,8.301],[6.981,8.444],[6.828,8.458]]]},"properties":{"shapeName":"Kogi","shapeISO":"NG-KO","shapeID":"27671186B96047513549152","shapeGroup":"NGA","shapeType":"ADM1"}},
{"type":"Feature","geometry":{"type":"Polygon","coordinates":[[[9.467,6.401],[9.598,6.5],[9.646,6.739],[9.646,6.895],[9.738,7.078],[9.824,7.172],[9.883,7.414],[9.885,7.508],[9.747,7.655],[9.643,7.8],[9.561,7.839],[9.387,7.845],[9.19,7.81],[9.179,7.908],[9.062,8.074],[8.911,8.056],[8.781,8.075],[8.504,8.158],[8.371,8.046],[8.348,7.928],[8.391,7.89],[8.372,7.77],[8.183,7.853],[8.072,7.877],[7.867,7.986],[7.677,8.014],[7.67,7.885],[7.753,7.744],[7.736,7.599],[7.799,7.401],[7.779,7.209],[7.691,7.192],[7.531,7.032],[7.578,6.933],[7.658,6.868],[7.819,6.892],[7.888,6.854],[7.818,6.638],[7.945,6.54],[7.987,6.611],[7.974,6.711],[8.099,6.707],[8.241,6.792],[8.295,6.679],[8.393,6.742],[8.621,6.781],[8.704,6.896],[8.848,6.866],[8.974,6.789],[8.992,6.692],[9.07,6.642],[9.304,6.718],[9.471,6.525],[9.467,6.401]]]},"properties":{"shapeName":"Benue","shapeISO":"NG-BE","shapeID":"27671186B36221103315467","shapeGroup":"NGA","shapeType":"ADM1"}},
{"type":"Feature","geometry":{"type":"Polygon","coordinates":[[[11.836,10.034],[11.921,10.025],[12.101,10.074],[12.136,10.237],[12.242,10.319],[12.557,10.395],[12.652,10.439],[12.732,10.573],[12.959,10.548],[13.052,10.464],[13.191,10.41],[13.233,10.558],[13.383,10.878],[13.577,10.948],[13.751,10.914],[13.811,11.052],[14.004,11.283],[14.189,11.244],[14.411,11.404],[14.611,11.499],[14.641,11.647],[14.589,11.692],[14.643,11.915],[14.623,12.03],[14.677,12.167],[14.468,12.358],[14.228,12.362],[14.188,12.406],[14.203,12.538],[14.083,13.083],[13.634,13.708],[13.335,13.711],[13.199,13.529],[13.037,13.54],[12.877,13.486],[12.741,13.335],[12.59,13.258],[12.43,13.073],[12.395,12.916],[12.485,12.802],[12.497,12.665],[12.419,12.524],[12.287,12.425],[12.285,12.266],[12.238,12.09],[12.281,11.995],[12.244,11.809],[12.3,11.609],[12.374,11.55],[12.344,11.479],[12.113,11.26],[12.126,11.038],[12.035,11.044],[11.938,10.948],[11.799,10.938],[11.742,10.821],[11.767,10.706],[11.714,10.634],[11.583,10.594],[11.663,10.497],[11.543,10.342],[11.612,10.22],[11.696,10.188],[11.79,10.039],[11.836,10.034]]]},"properties":{"shapeName":"Borno","shapeISO":"NG-BO","shapeID":"27671186B753479316714","shapeGroup":"NGA","shapeType":"ADM1"}},
{"type":"Feature","geometry":{"type":"Polygon","coordinates":[[[6.889,11.384],[7.006,11.362],[6.968,11.245],[7.152,11.129],[7.2,11.152],[7.227,11.279],[7.358,11.264],[7.392,11.375],[7.473,11.376],[7.608,11.272],[7.751,11.371],[7.675,11.483],[7.705,11.592],[7.902,11.653],[7.861,11.762],[7.829,11.969],[7.88,12.044],[7.855,12.147],[7.892,12.33],[8.157,12.44],[8.181,12.562],[8.246,12.594],[8.145,12.721],[8.179,12.811],[8.337,12.836],[8.552,12.832],[8.604,12.737],[8.723,12.67],[8.865,12.669],[9.041,12.846],[8.955,12.856],[8.664,12.943],[8.542,13.075],[8.409,13.088],[8.287,13.198],[8.122,13.304],[7.82,13.352],[7.38,13.1],[7.219,13.126],[7.051,12.995],[7.065,12.913],[7.044,12.659],[7.093,12.283],[7.15,12.232],[7.149,12.033],[7.226,11.914],[7.142,11.849],[6.896,11.787],[6.854,11.595],[6.904,11.553],[6.889,11.384]]]},"properties":{"shapeName":"Katsina","shapeISO":"NG-KT","shapeID":"27671186B99661334382691","shapeGroup":"NGA","shapeType":"ADM1"}},
{"type":"Feature","geometry":{"type":"Polygon","coordinates":[[[9.617,8.372],[9.757,8.367],[9.891,8.448],[10.052,8.592],[10.249,8.808],[10.427,8.948],[10.597,8.976],[10.636,9.119],[10.58,9.246],[10.541,9.484],[10.489,9.553],[10.261,9.687],[10.152,9.679],[10.068,9.731],[9.984,9.713],[9.981,9.623],[9.839,9.601],[9.764,9.54],[9.569,9.473],[9.425,9.477],[9.304,9.572],[9.291,9.658],[9.217,9.684],[9.232,9.862],[9.214,10.018],[9.128,10.059],[8.977,9.987],[8.939,10.027],[8.978,10.181],[8.93,10.215],[8.936,10.349],[8.818,10.38],[8.672,10.146],[8.68,10.005],[8.555,9.581],[8.648,9.396],[8.695,9.378],[8.658,9.208],[8.765,9.165],[8.798,9.032],[9.045,9.027],[9.072,8.945],[8.95,8.836],[8.892,8.733],[8.987,8.565],[9.101,8.474],[9.289,8.461],[9.355,8.483],[9.617,8.372]]]},"properties":{"shapeName":"Plateau","shapeISO":"NG-PL","shapeID":"27671186B51792679167430","shapeGroup":"NGA","shapeType":"ADM1"}},
{"type":"Feature","geometry":{"type":"Polygon","coordinates":[[[5.134,6.169],[5.217,6.136],[5.327,6.018],[5.669,6.052],[5.921,5.877],[5.925,5.748],[6.04,5.765],[6.218,5.917],[6.257,6.017],[6.134,6.136],[6.088,6.318],[6.213,6.279],[6.282,6.357],[6.413,6.396],[6.523,6.488],[6.669,6.501],[6.662,6.558],[6.611,6.822],[6.673,6.936],[6.716,7.136],[6.638,7.294],[6.515,7.267],[6.5,7.327],[6.38,7.398],[6.295,7.499],[6.187,7.439],[6.119,7.591],[6.004,7.529],[5.948,7.487],[5.987,7.355],[5.919,7.337],[5.903,7.217],[5.816,7.072],[5.758,6.784],[5.577,6.704],[5.537,6.885],[5.272,6.888],[5.141,6.731],[5.112,6.63],[5.153,6.498],[5.053,6.384],[5.016,6.292],[5.134,6.169]]]},"properties":{"shapeName":"Edo","shapeISO":"NG-ED","shapeID":"27671186B63712480376187","shapeGroup":"NGA","shapeType":"ADM1"}},
{"type":"Feature","geometry":{"type":"Polygon","coordinates":[[[8.246,12.594],[8.311,12.508],[8.398,12.483],[8.458,12.587],[8.556,12.603],[8.719,12.567],[8.71,12.416],[8.795,12.382],[8.758,12.293],[8.91,12.301],[8.938,12.114],[9.085,12.027],[9.199,12.083],[9.228,12.014],[9.174,11.703],[9.36,11.561],[9.232,11.45],[9.195,11.327],[9.351,11.343],[9.412,11.3],[9.609,11.315],[9.684,11.222],[9.825,11.28],[9.883,11.164],[9.863,11.006],[9.986,10.958],[10.088,10.99],[10.189,11.082],[10.27,11.088],[10.358,11.208],[9.999,11.265],[9.883,11.359],[9.831,11.54],[9.821,11.672],[9.713,11.721],[9.708,11.85],[9.883,11.933],[10.155,12.023],[10.148,12.238],[10.254,12.391],[10.258,12.46],[10.459,12.441],[10.598,12.522],[10.599,12.706],[10.538,12.824],[10.475,12.79],[10.305,12.861],[10.224,13.015],[9.988,12.956],[9.858,12.82],[9.765,12.796],[9.662,12.834],[9.635,12.802],[9.041,12.846],[8.865,12.669],[8.723,12.67],[8.604,12.737],[8.552,12.832],[8.337,12.836],[8.179,12.811],[8.145,12.721],[8.246,12.594]]]},"properties":{"shapeName":"Jigawa","shapeISO":"NG-JI","shapeID":"27671186B1226853346294","shapeGroup":"NGA","shapeType":"ADM1"}},
{"type":"Feature","geometry":{"type":"Polygon","coordinates":[[[6.602,5.687],[6.669,5.69],[6.695,5.746],[6.89,5.806],[7.06,5.931],[7.189,5.9],[7.261,5.939],[7.339,6.042],[7.261,6.079],[7.16,6.303],[7.144,6.388],[7.032,6.442],[7.048,6.527],[7.129,6.659],[7.017,6.706],[6.91,6.696],[6.861,6.753],[6.799,6.68],[6.808,6.58],[6.662,6.558],[6.669,6.501],[6.723,6.266],[6.769,6.168],[6.705,6.081],[6.725,6.012],[6.639,5.739],[6.602,5.687]]]},"properties":{"shapeName":"Anambra","shapeISO":"NG-AN","shapeID":"27671186B76680224160916","shapeGroup":"NGA","shapeType":"ADM1"}},
{"type":"Feature","geometry":{"type":"Polygon","coordinates":[[[7.751,11.371],[8.102,11.524],[8.114,11.408],[8.325,11.227],[8.434,11.227],[8.52,11.115],[8.607,11.071],[8.568,10.907],[8.572,10.748],[8.506,10.65],[8.65,10.624],[8.711,10.543],[8.783,10.597],[8.855,10.707],[8.746,10.857],[8.813,11.092],[9.089,11.314],[9.195,11.327],[9.232,11.45],[9.36,11.561],[9.174,11.703],[9.228,12.014],[9.199,12.083],[9.085,12.027],[8.938,12.114],[8.91,12.301],[8.758,12.293],[8.795,12.382],[8.71,12.416],[8.719,12.567],[8.556,12.603],[8.458,12.587],[8.398,12.483],[8.311,12.508],[8.246,12.594],[8.181,12.562],[8.157,12.44],[7.892,12.33],[7.855,12.147],[7.88,12.044],[7.829,11.969],[7.861,11.762],[7.902,11.653],[7.705,11.592],[7.675,11.483],[7.751,11.371]]]},"properties":{"shapeName":"Kano","shapeISO":"NG-KN","shapeID":"27671186B50148357657004","shapeGroup":"NGA","shapeType":"ADM1"}},
{"type":"Feature","geometry":{"type":"Polygon","coordinates":[[[6.981,8.444],[6.935,8.301],[7.003,8.167],[6.953,7.918],[7.035,7.923],[7.254,8.015],[7.505,8.047],[7.677,8.014],[7.867,7.986],[8.072,7.877],[8.183,7.853],[8.372,7.77],[8.391,7.89],[8.348,7.928],[8.371,8.046],[8.504,8.158],[8.781,8.075],[8.911,8.056],[9.062,8.074],[9.179,7.908],[9.336,7.986],[9.415,8.062],[9.33,8.236],[9.363,8.341],[9.61,8.291],[9.617,8.372],[9.355,8.483],[9.289,8.461],[9.101,8.474],[8.987,8.565],[8.892,8.733],[8.95,8.836],[9.072,8.945],[9.045,9.027],[8.798,9.032],[8.765,9.165],[8.658,9.208],[8.533,9.004],[8.387,9.176],[8.258,9.183],[8.192,9.052],[8.062,9.052],[8.087,9.231],[7.919,9.317],[7.793,9.276],[7.724,9.329],[7.668,9.304],[7.589,9.129],[7.592,8.835],[7.479,8.633],[7.365,8.488],[7.27,8.464],[6.981,8.444]]]},"properties":{"shapeName":"Nasarawa","shapeISO":"NG-NA","shapeID":"27671186B74554005070963","shapeGroup":"NGA","shapeType":"ADM1"}},
{"type":"Feature","geometry":{"type":"Polygon","coordinates":[[[4.126,13.25],[4.143,13.182],[4.105,12.996],[3.953,12.749],[3.673,12.552],[3.652,12.486],[3.666,12.207],[3.63,12.149],[3.672,11.976],[3.619,11.908],[3.664,11.755],[3.511,11.67],[3.511,11.525],[3.477,11.455],[3.486,11.313],[3.731,11.087],[3.77,10.92],[3.933,10.943],[3.993,11.016],[4.225,11.019],[4.381,10.88],[4.54,10.92],[4.718,10.885],[4.691,10.663],[4.51,10.535],[4.491,10.314],[4.567,10.223],[4.53,10.101],[4.625,10.103],[4.647,10.205],[4.794,10.261],[4.872,10.218],[4.947,10.285],[4.932,10.44],[4.819,10.507],[4.796,10.629],[5.101,10.761],[5.025,10.89],[5.081,10.951],[5.041,11.052],[4.746,11.148],[4.712,11.297],[4.959,11.369],[5.017,11.251],[5.233,11.218],[5.25,11.309],[5.348,11.339],[5.404,11.147],[5.389,11.037],[5.556,10.947],[5.729,10.998],[5.8,11.083],[5.978,11.167],[6.016,11.138],[6.106,11.183],[6.136,11.295],[6.01,11.463],[5.827,11.444],[5.819,11.648],[5.78,11.684],[5.497,11.656],[5.376,11.71],[5.302,11.791],[5.238,11.756],[4.941,11.731],[4.803,11.758],[4.731,11.7],[4.546,11.634],[4.523,11.53],[4.419,11.614],[4.436,11.711],[4.549,11.796],[4.588,12.039],[4.552,12.098],[4.552,12.284],[4.63,12.433],[4.75,12.421],[4.803,12.485],[4.795,12.575],[4.732,12.672],[4.807,12.819],[4.687,12.939],[4.623,13.07],[4.471,13.179],[4.3,13.26],[4.126,13.25]]]},"properties":{"shapeName":"Kebbi","shapeISO":"NG-KE","shapeID":"27671186B53868438251790","shapeGroup":"NGA","shapeType":"ADM1"}},
{"type":"Feature","geometry":{"type":"Polygon","coordinates":[[[7.264,5.216],[7.323,5.408],[7.432,5.609],[7.396,5.899],[7.261,5.939],[7.189,5.9],[7.06,5.931],[6.89,5.806],[6.695,5.746],[6.669,5.69],[6.639,5.493],[6.741,5.494],[6.756,5.323],[6.904,5.22],[7.04,5.25],[7.232,5.195],[7.264,5.216]]]},"properties":{"shapeName":"Imo","shapeISO":"NG-IM","shapeID":"27671186B8148656125930","shapeGroup":"NGA","shapeType":"ADM1"}},
{"type":"Feature","geometry":{"type":"Polygon","coordinates":[[[11.583,10.594],[11.517,10.57],[11.53,10.935],[11.342,11.164],[11.092,11.226],[10.982,11.179],[10.937,11.096],[10.738,11.101],[10.669,11.04],[10.652,10.881],[10.569,10.811],[10.494,10.688],[10.662,10.491],[10.722,10.49],[10.835,10.4],[10.863,10.268],[10.8,10.135],[10.717,10.05],[10.945,9.88],[10.982,9.775],[10.969,9.615],[11.008,9.552],[11.114,9.526],[11.222,9.569],[11.43,9.55],[11.468,9.598],[11.634,9.627],[11.817,9.741],[11.803,9.832],[11.836,10.034],[11.79,10.039],[11.696,10.188],[11.612,10.22],[11.543,10.342],[11.663,10.497],[11.583,10.594]]]},"properties":{"shapeName":"Gombe","shapeISO":"NG-GO","shapeID":"27671186B90305463766462","shapeGroup":"NGA","shapeType":"ADM1"}},
{"type":"Feature","geometry":{"type":"Polygon","coordinates":[[[11.836,10.034],[11.803,9.832],[11.817,9.741],[11.634,9.627],[11.468,9.598],[11.43,9.55],[11.526,9.408],[11.531,9.326],[11.648,9.305],[11.707,9.074],[11.872,8.947],[11.788,8.643],[11.78,8.514],[11.648,8.442],[11.546,8.246],[11.342,8.019],[11.49,7.8],[11.541,7.892],[11.651,7.857],[11.633,7.75],[11.773,7.652],[11.772,7.488],[11.853,7.391],[12.041,7.574],[12.044,7.74],[12.207,7.968],[12.21,8.132],[12.256,8.198],[12.254,8.408],[12.441,8.455],[12.681,8.467],[12.879,8.75],[12.844,8.971],[12.942,9.063],[12.906,9.341],[12.968,9.452],[13.049,9.507],[13.219,9.543],[13.26,9.752],[13.244,10.032],[13.318,10.1],[13.452,10.154],[13.519,10.394],[13.573,10.667],[13.751,10.914],[13.577,10.948],[13.383,10.878],[13.233,10.558],[13.191,10.41],[13.052,10.464],[12.959,10.548],[12.732,10.573],[12.652,10.439],[12.557,10.395],[12.242,10.319],[12.136,10.237],[12.101,10.074],[11.921,10.025],[11.836,10.034]]]},"properties":{"shapeName":"Adamawa","shapeISO":"NG-AD","shapeID":"27671186B49737451005073","shapeGroup":"NGA","shapeType":"ADM1"}},
{"type":"Feature","geometry":{"type":"Polygon","coordinates":[[[12.43,13.073],[12.259,13.118],[12.117,13.114],[11.82,13.273],[11.452,13.377],[11.106,13.361],[10.835,13.387],[10.645,13.375],[10.464,13.319],[10.173,13.27],[9.962,13.156],[9.662,12.834],[9.765,12.796],[9.858,12.82],[9.988,12.956],[10.224,13.015],[10.305,12.861],[10.475,12.79],[10.538,12.824],[10.599,12.706],[10.598,12.522],[10.751,12.476],[10.823,12.109],[10.817,11.886],[10.905,11.827],[10.939,11.554],[10.91,11.331],[10.982,11.179],[11.092,11.226],[11.342,11.164],[11.53,10.935],[11.517,10.57],[11.583,10.594],[11.714,10.634],[11.767,10.706],[11.742,10.821],[11.799,10.938],[11.938,10.948],[12.035,11.044],[12.126,11.038],[12.113,11.26],[12.344,11.479],[12.374,11.55],[12.3,11.609],[12.244,11.809],[12.281,11.995],[12.238,12.09],[12.285,12.266],[12.287,12.425],[12.419,12.524],[12.497,12.665],[12.485,12.802],[12.395,12.916],[12.43,13.073]]]},"properties":{"shapeName":"Yobe","shapeISO":"NG-YO","shapeID":"27671186B69054806776702","shapeGroup":"NGA","shapeType":"ADM1"}},
{"type":"Feature","geometry":{"type":"Polygon","coordinates":[[[7.89,5.685],[7.769,5.814],[7.527,5.844],[7.53,6.006],[7.339,6.042],[7.261,5.939],[7.396,5.899],[7.432,5.609],[7.323,5.408],[7.264,5.216],[7.293,5.173],[7.241,4.994],[7.156,4.884],[7.416,4.867],[7.495,4.828],[7.46,4.978],[7.547,5.088],[7.528,5.156],[7.572,5.324],[7.657,5.446],[7.749,5.516],[7.88,5.367],[7.984,5.376],[7.908,5.536],[7.89,5.685]]]},"properties":{"shapeName":"Abia","shapeISO":"NG-AB","shapeID":"27671186B83117616801018","shapeGroup":"NGA","shapeType":"ADM1"}},
{"type":"Feature","geometry":{"type":"Polygon","coordinates":[[[5.773,7.747],[5.729,7.828],[5.643,7.829],[5.599,7.952],[5.668,8.002],[5.498,8.111],[5.371,8.096],[5.332,8.01],[5.058,8.039],[4.911,7.85],[4.864,7.623],[4.952,7.448],[5.005,7.414],[5.049,7.457],[5.32,7.441],[5.358,7.296],[5.504,7.316],[5.599,7.45],[5.618,7.564],[5.773,7.747]]]},"properties":{"shapeName":"Ekiti","shapeISO":"NG-EK","shapeID":"27671186B91150779192485","shapeGroup":"NGA","shapeType":"ADM1"}},
{"type":"Feature","geometry":{"type":"Polygon","coordinates":[[[4.61,7.031],[4.635,7.113],[4.747,7.223],[4.755,7.361],[4.99,7.378],[5.005,7.414],[4.952,7.448],[4.864,7.623],[4.911,7.85],[5.058,8.039],[4.913,8.086],[4.819,8.054],[4.569,8.055],[4.557,7.981],[4.36,7.883],[4.276,7.971],[4.203,7.869],[4.076,7.825],[4.069,7.666],[4.154,7.569],[4.125,7.258],[4.088,7.133],[4.171,7.171],[4.198,7.049],[4.298,7.091],[4.376,6.995],[4.489,6.992],[4.61,7.031]]]},"properties":{"shapeName":"Osun","shapeISO":"NG-OS","shapeID":"27671186B37873222803025","shapeGroup":"NGA","shapeType":"ADM1"}},
{"type":"Feature","geometry":{"type":"Polygon","coordinates":[[[10.541,9.484],[10.774,9.447],[10.969,9.615],[10.982,9.775],[10.945,9.88],[10.717,10.05],[10.8,10.135],[10.863,10.268],[10.835,10.4],[10.722,10.49],[10.662,10.491],[10.494,10.688],[10.569,10.811],[10.652,10.881],[10.669,11.04],[10.738,11.101],[10.937,11.096],[10.982,11.179],[10.91,11.331],[10.939,11.554],[10.905,11.827],[10.817,11.886],[10.823,12.109],[10.751,12.476],[10.598,12.522],[10.459,12.441],[10.258,12.46],[10.254,12.391],[10.148,12.238],[10.155,12.023],[9.883,11.933],[9.708,11.85],[9.713,11.721],[9.821,11.672],[9.831,11.54],[9.883,11.359],[9.999,11.265],[10.358,11.208],[10.27,11.088],[10.189,11.082],[10.088,10.99],[9.986,10.958],[9.863,11.006],[9.883,11.164],[9.825,11.28],[9.684,11.222],[9.609,11.315],[9.412,11.3],[9.351,11.343],[9.195,11.327],[9.089,11.314],[8.813,11.092],[8.746,10.857],[8.855,10.707],[8.783,10.597],[8.777,10.479],[8.818,10.38],[8.936,10.349],[8.93,10.215],[8.978,10.181],[8.939,10.027],[8.977,9.987],[9.128,10.059],[9.214,10.018],[9.232,9.862],[9.217,9.684],[9.291,9.658],[9.304,9.572],[9.425,9.477],[9.569,9.473],[9.764,9.54],[9.839,9.601],[9.981,9.623],[9.984,9.713],[10.068,9.731],[10.152,9.679],[10.261,9.687],[10.489,9.553],[10.541,9.484]]]},"properties":{"shapeName":"Bauchi","shapeISO":"NG-BA","shapeID":"27671186B7584771598694","shapeGroup":"NGA","shapeType":"ADM1"}},
{"type":"Feature","geometry":{"type":"Polygon","coordinates":[[[7.379,9.336],[7.232,9.318],[7.201,9.46],[7.234,9.565],[7.306,9.628],[7.205,9.758],[7.293,9.811],[7.278,10.016],[6.952,10.048],[6.885,10.151],[7.051,10.317],[6.923,10.382],[6.954,10.482],[6.803,10.643],[6.54,10.545],[6.495,10.616],[6.402,10.574],[6.236,10.385],[6.173,10.381],[6.099,10.702],[6.123,10.845],[6.267,10.966],[6.163,11.043],[6.046,11.054],[6.016,11.138],[5.978,11.167],[5.8,11.083],[5.729,10.998],[5.556,10.947],[5.389,11.037],[5.404,11.147],[5.348,11.339],[5.25,11.309],[5.233,11.218],[5.017,11.251],[4.959,11.369],[4.712,11.297],[4.746,11.148],[5.041,11.052],[5.081,10.951],[5.025,10.89],[5.101,10.761],[4.796,10.629],[4.819,10.507],[4.932,10.44],[4.947,10.285],[4.872,10.218],[4.794,10.261],[4.647,10.205],[4.625,10.103],[4.53,10.101],[4.567,10.223],[4.491,10.314],[4.51,10.535],[4.691,10.663],[4.718,10.885],[4.54,10.92],[4.381,10.88],[4.225,11.019],[3.993,11.016],[3.933,10.943],[3.77,10.92],[3.749,10.803],[3.849,10.683],[3.855,10.585],[3.794,10.406],[3.701,10.449],[3.637,10.412],[3.582,10.275],[3.684,10.157],[3.731,10.068],[3.864,10.05],[3.949,9.991],[3.935,9.928],[4.022,9.857],[4.153,9.862],[4.351,9.588],[4.639,9.308],[4.755,9.248],[4.815,9.132],[4.997,9.207],[5.159,9.107],[5.209,9.035],[5.54,8.931],[5.642,8.835],[5.728,8.82],[5.796,8.742],[6.033,8.759],[6.209,8.732],[6.303,8.728],[6.398,8.629],[6.453,8.448],[6.599,8.324],[6.684,8.213],[6.761,8.273],[6.838,8.397],[6.828,8.458],[6.78,8.58],[6.788,9.27],[7.015,9.269],[7.22,9.114],[7.379,9.336]]]},"properties":{"shapeName":"Niger","shapeISO":"NG-NI","shapeID":"27671186B79778155682183","shapeGroup":"NGA","shapeType":"ADM1"}},
{"type":"Feature","geometry":{"type":"Polygon","coordinates":[[[7.724,9.329],[7.793,9.276],[7.919,9.317],[8.087,9.231],[8.062,9.052],[8.192,9.052],[8.258,9.183],[8.387,9.176],[8.533,9.004],[8.658,9.208],[8.695,9.378],[8.648,9.396],[8.555,9.581],[8.68,10.005],[8.672,10.146],[8.818,10.38],[8.777,10.479],[8.783,10.597],[8.711,10.543],[8.65,10.624],[8.506,10.65],[8.572,10.748],[8.568,10.907],[8.607,11.071],[8.52,11.115],[8.434,11.227],[8.325,11.227],[8.114,11.408],[8.102,11.524],[7.751,11.371],[7.608,11.272],[7.473,11.376],[7.392,11.375],[7.358,11.264],[7.227,11.279],[7.2,11.152],[7.152,11.129],[6.968,11.245],[7.006,11.362],[6.889,11.384],[6.703,11.239],[6.683,11.065],[6.437,11.008],[6.329,11.027],[6.267,10.966],[6.123,10.845],[6.099,10.702],[6.173,10.381],[6.236,10.385],[6.402,10.574],[6.495,10.616],[6.54,10.545],[6.803,10.643],[6.954,10.482],[6.923,10.382],[7.051,10.317],[6.885,10.151],[6.952,10.048],[7.278,10.016],[7.293,9.811],[7.205,9.758],[7.306,9.628],[7.234,9.565],[7.201,9.46],[7.232,9.318],[7.379,9.336],[7.647,9.409],[7.724,9.329]]]},"properties":{"shapeName":"Kaduna","shapeISO":"NG-KD","shapeID":"27671186B54051914323789","shapeGroup":"NGA","shapeType":"ADM1"}},
{"type":"Feature","geometry":{"type":"Polygon","coordinates":[[[6.861,6.753],[6.91,6.696],[7.017,6.706],[7.129,6.659],[7.048,6.527],[7.032,6.442],[7.144,6.388],[7.16,6.303],[7.261,6.079],[7.339,6.042],[7.53,6.006],[7.692,5.925],[7.669,6.064],[7.726,6.115],[7.709,6.278],[7.751,6.386],[7.691,6.638],[7.818,6.638],[7.888,6.854],[7.819,6.892],[7.658,6.868],[7.578,6.933],[7.531,7.032],[7.432,7.102],[7.241,6.971],[7.081,6.8],[6.952,6.808],[6.861,6.753]]]},"properties":{"shapeName":"Enugu","shapeISO":"NG-EN","shapeID":"27671186B90910891533368","shapeGroup":"NGA","shapeType":"ADM1"}},
{"type":"Feature","geometry":{"type":"Polygon","coordinates":[[[9.598,6.5],[9.709,6.521],[9.796,6.802],[9.875,6.776],[10.165,7.021],[10.205,6.901],[10.269,6.875],[10.513,6.878],[10.56,7.022],[10.62,7.054],[10.77,6.962],[10.842,6.958],[10.883,6.828],[11.019,6.779],[11.082,6.698],[11.062,6.596],[11.117,6.444],[11.273,6.433],[11.413,6.484],[11.437,6.591],[11.518,6.607],[11.589,6.759],[11.555,6.821],[11.638,6.944],[11.763,7.003],[11.882,7.132],[11.764,7.284],[11.853,7.391],[11.772,7.488],[11.773,7.652],[11.633,7.75],[11.651,7.857],[11.541,7.892],[11.49,7.8],[11.342,8.019],[11.546,8.246],[11.648,8.442],[11.78,8.514],[11.788,8.643],[11.872,8.947],[11.707,9.074],[11.648,9.305],[11.531,9.326],[11.526,9.408],[11.43,9.55],[11.222,9.569],[11.114,9.526],[11.008,9.552],[10.969,9.615],[10.774,9.447],[10.541,9.484],[10.58,9.246],[10.636,9.119],[10.597,8.976],[10.427,8.948],[10.249,8.808],[10.052,8.592],[9.891,8.448],[9.757,8.367],[9.617,8.372],[9.61,8.291],[9.363,8.341],[9.33,8.236],[9.415,8.062],[9.336,7.986],[9.179,7.908],[9.19,7.81],[9.387,7.845],[9.561,7.839],[9.643,7.8],[9.747,7.655],[9.885,7.508],[9.883,7.414],[9.824,7.172],[9.738,7.078],[9.646,6.895],[9.646,6.739],[9.598,6.5]]]},"properties":{"shapeName":"Taraba","shapeISO":"NG-TA","shapeID":"27671186B83252759475924","shapeGroup":"NGA","shapeType":"ADM1"}},
{"type":"Feature","geometry":{"type":"Polygon","coordinates":[[[8.295,6.679],[8.241,6.792],[8.099,6.707],[7.974,6.711],[7.987,6.611],[7.945,6.54],[7.818,6.638],[7.691,6.638],[7.751,6.386],[7.709,6.278],[7.726,6.115],[7.669,6.064],[7.692,5.925],[7.53,6.006],[7.527,5.844],[7.769,5.814],[7.89,5.685],[7.932,5.822],[7.988,5.885],[7.986,5.982],[8.114,5.938],[8.215,6.012],[8.418,6.261],[8.404,6.366],[8.457,6.428],[8.34,6.575],[8.295,6.679]]]},"properties":{"shapeName":"Ebonyi","shapeISO":"NG-EB","shapeID":"27671186B90886723034258","shapeGroup":"NGA","shapeType":"ADM1"}}
]}